STARLINK-37413          
1 68789U 26086Z   26117.62088799 -.00323124  38459-4 -77321-3 0  9999
2 68789  97.2769 153.0606 0001460 358.2756   1.8516 15.96480176  1197
