{
  "norad_id": 68789,
  "name": "STARLINK-37413",
  "history": [
    {
      "epoch": "2026-04-27T14:54:04.722336Z",
      "apogee_km": 285.1663829841664,
      "perigee_km": 283.2200498347438,
      "latitude_deg": 7.493140058091256e-05,
      "longitude_deg": 73.93283696574174,
      "height_km": 286.4173618101369,
      "semi_major_axis_km": 6662.330216409455,
      "eccentricity": 0.00014607,
      "inclination_deg": 97.2769,
      "raan_deg": 153.0606,
      "arg_perigee_deg": 358.2756,
      "mean_anomaly_deg": 1.8516,
      "mean_motion_rev_day": 15.96480176
    }
  ]
}